D-SAT                   
1 42794U 17036AF  26065.15326441  .00008492  00000+0  41317-3 0  9999
2 42794  97.5483  44.5121 0084905 157.4135 203.0870 15.15452171475247
IRIDIUM 113             
1 42803U 17039A   26065.19225870  .00000038  00000+0  63894-5 0  9995
2 42803  86.4023   5.2099 0002217  82.2342 277.9106 14.34217897456429
NORSAT 2                
1 42828U 17042D   26065.05720652  .00013757  00000+0  64821-3 0  9990
2 42828  97.3966 240.3316 0010605  56.7239 303.5011 15.19573370472062
TECHNOSAT               
1 42829U 17042E   26065.23527557  .00005057  00000+0  36623-3 0  9993
2 42829  97.4151 226.9329 0019779  86.5675 273.7813 15.04250058471224
FLYING LAPTOP           
1 42831U 17042G   26065.31036488  .00003389  00000+0  27262-3 0  9998
2 42831  97.4264 225.1346 0018832 106.3478 253.9819 15.00488681471028
WNISAT 1R               
1 42835U 17042L   26064.99574999  .00004592  00000+0  36247-3 0  9999
2 42835  97.4494 224.9990 0013191 143.6491 216.5632 15.01111935471025
LEMUR-2-GREENBERG       
1 42837U 17042N   26065.05643274  .00019624  00000+0  72333-3 0  9990
2 42837  97.3768 246.4298 0009314  16.1457 344.0077 15.27806959472620
LEMUR-2-FURIAUS         
1 42840U 17042R   26065.28973414  .00027689  00000+0  10745-2 0  9999
2 42840  97.3743 244.8759 0007633  69.0312 291.1743 15.26044518472491
CORVUS BC2              
1 42846U 17042X   26065.20501719  .00006060  00000+0  42369-3 0  9990
2 42846  97.3938 230.6723 0014323 104.2171 256.0649 15.05565865471568
CORVUS BC1              
1 42847U 17042Y   26065.01268058  .00004906  00000+0  34209-3 0  9997
2 42847  97.3966 231.2312 0013202  83.1035 277.1694 15.05773651471568
VRSS-2                  
1 42954U 17060A   26065.29556260  .00001645  00000+0  21818-3 0  9990
2 42954  97.6656 107.5987 0018647  77.5224 282.8074 14.81010471453229
MOHAMMED VI-A           
1 43005U 17070A   26065.31071257  .00001469  00000+0  21504-3 0  9996
2 43005  97.9441 139.1049 0001438  98.3170 261.8204 14.77119727448790
FENGYUN 3D              
1 43010U 17072A   26065.32377819  .00000588  00000+0  29998-3 0  9994
2 43010  99.0026  37.9451 0001746  19.5822 340.5420 14.19715576430393
CZ-4C R/B               
1 43012U 17072C   26065.28924330  .00000826  00000+0  17005-3 0  9998
2 43012  98.5701 169.9828 0123667 108.7645 252.7018 14.58688503441632
NOAA 20 (JPSS-1)        
1 43013U 17073A   26065.30413478  .00000124  00000+0  79552-4 0  9996
2 43013  98.7689   5.7250 0001061 141.7646 218.3606 14.19535050429875
MAKERSAT 0              
1 43016U 17073D   26065.23073688  .00025802  00000+0  78414-3 0  9991
2 43016  97.4782 307.1982 0115679 278.2847  80.5288 15.27603695450723
