[{"OBJECT_NAME":"D-SAT","OBJECT_ID":"2017-036AF","EPOCH":"2026-03-06T03:40:42.045024","MEAN_MOTION":15.15452171,"ECCENTRICITY":0.00849056,"INCLINATION":97.5483,"RA_OF_ASC_NODE":44.5121,"ARG_OF_PERICENTER":157.4135,"MEAN_ANOMALY":203.087,"EPHEMERIS_TYPE":0,"CLASSIFICATION_TYPE":"U","NORAD_CAT_ID":42794,"ELEMENT_SET_NO":999,"REV_AT_EPOCH":47524,"BSTAR":0.00041317224,"MEAN_MOTION_DOT":8.492e-5,"MEAN_MOTION_DDOT":0},{"OBJECT_NAME":"IRIDIUM 113","OBJECT_ID":"2017-039A","EPOCH":"2026-03-06T04:36:51.151680","MEAN_MOTION":14.34217897,"ECCENTRICITY":0.00022179,"INCLINATION":86.4023,"RA_OF_ASC_NODE":5.2099,"ARG_OF_PERICENTER":82.2342,"MEAN_ANOMALY":277.9106,"EPHEMERIS_TYPE":0,"CLASSIFICATION_TYPE":"U","NORAD_CAT_ID":42803,"ELEMENT_SET_NO":999,"REV_AT_EPOCH":45642,"BSTAR":6.3894e-6,"MEAN_MOTION_DOT":3.8e-7,"MEAN_MOTION_DDOT":0},{"OBJECT_NAME":"NORSAT 2","OBJECT_ID":"2017-042D","EPOCH":"2026-03-06T01:22:22.643328","MEAN_MOTION":15.1957337,"ECCENTRICITY":0.00106054,"INCLINATION":97.3966,"RA_OF_ASC_NODE":240.3316,"ARG_OF_PERICENTER":56.7239,"MEAN_ANOMALY":303.5011,"EPHEMERIS_TYPE":0,"CLASSIFICATION_TYPE":"U","NORAD_CAT_ID":42828,"ELEMENT_SET_NO":999,"REV_AT_EPOCH":47206,"BSTAR":0.00064821318,"MEAN_MOTION_DOT":0.00013757,"MEAN_MOTION_DDOT":0},{"OBJECT_NAME":"TECHNOSAT","OBJECT_ID":"2017-042E","EPOCH":"2026-03-06T05:38:47.809248","MEAN_MOTION":15.04250058,"ECCENTRICITY":0.0019779,"INCLINATION":97.4151,"RA_OF_ASC_NODE":226.9329,"ARG_OF_PERICENTER":86.5675,"MEAN_ANOMALY":273.7813,"EPHEMERIS_TYPE":0,"CLASSIFICATION_TYPE":"U","NORAD_CAT_ID":42829,"ELEMENT_SET_NO":999,"REV_AT_EPOCH":47122,"BSTAR":0.00036623348,"MEAN_MOTION_DOT":5.057e-5,"MEAN_MOTION_DDOT":0},{"OBJECT_NAME":"FLYING LAPTOP","OBJECT_ID":"2017-042G","EPOCH":"2026-03-06T07:26:55.525632","MEAN_MOTION":15.00488681,"ECCENTRICITY":0.00188324,"INCLINATION":97.4264,"RA_OF_ASC_NODE":225.1346,"ARG_OF_PERICENTER":106.3478,"MEAN_ANOMALY":253.9819,"EPHEMERIS_TYPE":0,"CLASSIFICATION_TYPE":"U","NORAD_CAT_ID":42831,"ELEMENT_SET_NO":999,"REV_AT_EPOCH":47102,"BSTAR":0.00027262487,"MEAN_MOTION_DOT":3.389e-5,"MEAN_MOTION_DDOT":0},{"OBJECT_NAME":"WNISAT 1R","OBJECT_ID":"2017-042L","EPOCH":"2026-03-05T23:53:52.799136","MEAN_MOTION":15.01111935,"ECCENTRICITY":0.0013191,"INCLINATION":97.4494,"RA_OF_ASC_NODE":224.999,"ARG_OF_PERICENTER":143.6491,"MEAN_ANOMALY":216.5632,"EPHEMERIS_TYPE":0,"CLASSIFICATION_TYPE":"U","NORAD_CAT_ID":42835,"ELEMENT_SET_NO":999,"REV_AT_EPOCH":47102,"BSTAR":0.0003624746,"MEAN_MOTION_DOT":4.592e-5,"MEAN_MOTION_DDOT":0},{"OBJECT_NAME":"LEMUR-2-GREENBERG","OBJECT_ID":"2017-042N","EPOCH":"2026-03-06T01:21:15.788736","MEAN_MOTION":15.27806959,"ECCENTRICITY":0.0009314,"INCLINATION":97.3768,"RA_OF_ASC_NODE":246.4298,"ARG_OF_PERICENTER":16.1457,"MEAN_ANOMALY":344.0077,"EPHEMERIS_TYPE":0,"CLASSIFICATION_TYPE":"U","NORAD_CAT_ID":42837,"ELEMENT_SET_NO":999,"REV_AT_EPOCH":47262,"BSTAR":0.00072333062,"MEAN_MOTION_DOT":0.00019624,"MEAN_MOTION_DDOT":0},{"OBJECT_NAME":"LEMUR-2-FURIAUS","OBJECT_ID":"2017-042R","EPOCH":"2026-03-06T06:57:13.029696","MEAN_MOTION":15.26044518,"ECCENTRICITY":0.00076334,"INCLINATION":97.3743,"RA_OF_ASC_NODE":244.8759,"ARG_OF_PERICENTER":69.0312,"MEAN_ANOMALY":291.1743,"EPHEMERIS_TYPE":0,"CLASSIFICATION_TYPE":"U","NORAD_CAT_ID":42840,"ELEMENT_SET_NO":999,"REV_AT_EPOCH":47249,"BSTAR":0.0010744505,"MEAN_MOTION_DOT":0.00027689,"MEAN_MOTION_DDOT":0},{"OBJECT_NAME":"CORVUS BC2","OBJECT_ID":"2017-042X","EPOCH":"2026-03-06T04:55:13.485216","MEAN_MOTION":15.05565865,"ECCENTRICITY":0.00143235,"INCLINATION":97.3938,"RA_OF_ASC_NODE":230.6723,"ARG_OF_PERICENTER":104.2171,"MEAN_ANOMALY":256.0649,"EPHEMERIS_TYPE":0,"CLASSIFICATION_TYPE":"U","NORAD_CAT_ID":42846,"ELEMENT_SET_NO":999,"REV_AT_EPOCH":47156,"BSTAR":0.00042369358,"MEAN_MOTION_DOT":6.06e-5,"MEAN_MOTION_DDOT":0},{"OBJECT_NAME":"CORVUS BC1","OBJECT_ID":"2017-042Y","EPOCH":"2026-03-06T00:18:15.602112","MEAN_MOTION":15.05773651,"ECCENTRICITY":0.00132025,"INCLINATION":97.3966,"RA_OF_ASC_NODE":231.2312,"ARG_OF_PERICENTER":83.1035,"MEAN_ANOMALY":277.1694,"EPHEMERIS_TYPE":0,"CLASSIFICATION_TYPE":"U","NORAD_CAT_ID":42847,"ELEMENT_SET_NO":999,"REV_AT_EPOCH":47156,"BSTAR":0.00034208618,"MEAN_MOTION_DOT":4.906e-5,"MEAN_MOTION_DDOT":0},{"OBJECT_NAME":"VRSS-2","OBJECT_ID":"2017-060A","EPOCH":"2026-03-06T07:05:36.608640","MEAN_MOTION":14.81010471,"ECCENTRICITY":0.00186471,"INCLINATION":97.6656,"RA_OF_ASC_NODE":107.5987,"ARG_OF_PERICENTER":77.5224,"MEAN_ANOMALY":282.8074,"EPHEMERIS_TYPE":0,"CLASSIFICATION_TYPE":"U","NORAD_CAT_ID":42954,"ELEMENT_SET_NO":999,"REV_AT_EPOCH":45322,"BSTAR":0.00021817706,"MEAN_MOTION_DOT":1.645e-5,"MEAN_MOTION_DDOT":0},{"OBJECT_NAME":"MOHAMMED VI-A","OBJECT_ID":"2017-070A","EPOCH":"2026-03-06T07:27:25.566048","MEAN_MOTION":14.77119727,"ECCENTRICITY":0.00014389,"INCLINATION":97.9441,"RA_OF_ASC_NODE":139.1049,"ARG_OF_PERICENTER":98.317,"MEAN_ANOMALY":261.8204,"EPHEMERIS_TYPE":0,"CLASSIFICATION_TYPE":"U","NORAD_CAT_ID":43005,"ELEMENT_SET_NO":999,"REV_AT_EPOCH":44879,"BSTAR":0.00021503707,"MEAN_MOTION_DOT":1.469e-5,"MEAN_MOTION_DDOT":0},{"OBJECT_NAME":"FENGYUN 3D","OBJECT_ID":"2017-072A","EPOCH":"2026-03-06T07:46:14.435616","MEAN_MOTION":14.19715576,"ECCENTRICITY":0.00017464,"INCLINATION":99.0026,"RA_OF_ASC_NODE":37.9451,"ARG_OF_PERICENTER":19.5822,"MEAN_ANOMALY":340.542,"EPHEMERIS_TYPE":0,"CLASSIFICATION_TYPE":"U","NORAD_CAT_ID":43010,"ELEMENT_SET_NO":999,"REV_AT_EPOCH":43039,"BSTAR":0.00029998459,"MEAN_MOTION_DOT":5.88e-6,"MEAN_MOTION_DDOT":0},{"OBJECT_NAME":"CZ-4C R/B","OBJECT_ID":"2017-072C","EPOCH":"2026-03-06T06:56:30.621120","MEAN_MOTION":14.58688503,"ECCENTRICITY":0.01236678,"INCLINATION":98.5701,"RA_OF_ASC_NODE":169.9828,"ARG_OF_PERICENTER":108.7645,"MEAN_ANOMALY":252.7018,"EPHEMERIS_TYPE":0,"CLASSIFICATION_TYPE":"U","NORAD_CAT_ID":43012,"ELEMENT_SET_NO":999,"REV_AT_EPOCH":44163,"BSTAR":0.00017005159,"MEAN_MOTION_DOT":8.26e-6,"MEAN_MOTION_DDOT":0},{"OBJECT_NAME":"NOAA 20 (JPSS-1)","OBJECT_ID":"2017-073A","EPOCH":"2026-03-06T07:17:57.244992","MEAN_MOTION":14.1953505,"ECCENTRICITY":0.00010619,"INCLINATION":98.7689,"RA_OF_ASC_NODE":5.725,"ARG_OF_PERICENTER":141.7646,"MEAN_ANOMALY":218.3606,"EPHEMERIS_TYPE":0,"CLASSIFICATION_TYPE":"U","NORAD_CAT_ID":43013,"ELEMENT_SET_NO":999,"REV_AT_EPOCH":42987,"BSTAR":7.955203e-5,"MEAN_MOTION_DOT":1.24e-6,"MEAN_MOTION_DDOT":0},{"OBJECT_NAME":"MAKERSAT 0","OBJECT_ID":"2017-073D","EPOCH":"2026-03-06T05:32:15.666432","MEAN_MOTION":15.27603695,"ECCENTRICITY":0.01156798,"INCLINATION":97.4782,"RA_OF_ASC_NODE":307.1982,"ARG_OF_PERICENTER":278.2847,"MEAN_ANOMALY":80.5288,"EPHEMERIS_TYPE":0,"CLASSIFICATION_TYPE":"U","NORAD_CAT_ID":43016,"ELEMENT_SET_NO":999,"REV_AT_EPOCH":45072,"BSTAR":0.00078413784,"MEAN_MOTION_DOT":0.00025802,"MEAN_MOTION_DDOT":0}]
